CCSDS_OMM_VERS = 2.0
CREATION_DATE  = 
ORIGINATOR     = 

OBJECT_NAME    = SOYUZ-MS 28
OBJECT_ID      = 2025-275A
CENTER_NAME    = EARTH
REF_FRAME      = TEME
TIME_SYSTEM    = UTC
MEAN_ELEMENT_THEORY = SGP/SGP4

EPOCH          = 2025-12-18T16:01:23.678688
MEAN_MOTION    = 15.49654558
ECCENTRICITY   = .00031819
INCLINATION    = 51.6314
RA_OF_ASC_NODE = 113.1238
ARG_OF_PERICENTER = 267.6136
MEAN_ANOMALY   = 92.4488

EPHEMERIS_TYPE = 0
CLASSIFICATION_TYPE = U
NORAD_CAT_ID   = 66664
ELEMENT_SET_NO = 999
REV_AT_EPOCH   = 128
BSTAR          = .138424E-3
MEAN_MOTION_DOT = .7358E-4
MEAN_MOTION_DDOT = 0

CCSDS_OMM_VERS = 2.0
CREATION_DATE  = 
ORIGINATOR     = 

OBJECT_NAME    = 1998-067XS
OBJECT_ID      = 1998-067XS
CENTER_NAME    = EARTH
REF_FRAME      = TEME
TIME_SYSTEM    = UTC
MEAN_ELEMENT_THEORY = SGP/SGP4

EPOCH          = 2025-12-18T14:14:47.325984
MEAN_MOTION    = 15.50877887
ECCENTRICITY   = .00030668
INCLINATION    = 51.6311
RA_OF_ASC_NODE = 113.3804
ARG_OF_PERICENTER = 230.5170
MEAN_ANOMALY   = 129.5548

EPHEMERIS_TYPE = 0
CLASSIFICATION_TYPE = U
NORAD_CAT_ID   = 66906
ELEMENT_SET_NO = 999
REV_AT_EPOCH   = 252
BSTAR          = .40765177E-3
MEAN_MOTION_DOT = .23614E-3
MEAN_MOTION_DDOT = 0

CCSDS_OMM_VERS = 2.0
CREATION_DATE  = 
ORIGINATOR     = 

OBJECT_NAME    = 1998-067XT
OBJECT_ID      = 1998-067XT
CENTER_NAME    = EARTH
REF_FRAME      = TEME
TIME_SYSTEM    = UTC
MEAN_ELEMENT_THEORY = SGP/SGP4

EPOCH          = 2025-12-18T14:04:54.777504
MEAN_MOTION    = 15.52162368
ECCENTRICITY   = .00039418
INCLINATION    = 51.6304
RA_OF_ASC_NODE = 113.3340
ARG_OF_PERICENTER = 262.1658
MEAN_ANOMALY   = 97.8884

EPHEMERIS_TYPE = 0
CLASSIFICATION_TYPE = U
NORAD_CAT_ID   = 66907
ELEMENT_SET_NO = 999
REV_AT_EPOCH   = 252
BSTAR          = .8765902E-3
MEAN_MOTION_DOT = .5395E-3
MEAN_MOTION_DDOT = 0

CCSDS_OMM_VERS = 2.0
CREATION_DATE  = 
ORIGINATOR     = 

OBJECT_NAME    = 1998-067XU
OBJECT_ID      = 1998-067XU
CENTER_NAME    = EARTH
REF_FRAME      = TEME
TIME_SYSTEM    = UTC
MEAN_ELEMENT_THEORY = SGP/SGP4

EPOCH          = 2025-12-18T14:03:56.443680
MEAN_MOTION    = 15.52259493
ECCENTRICITY   = .00039838
INCLINATION    = 51.6306
RA_OF_ASC_NODE = 113.3296
ARG_OF_PERICENTER = 260.0245
MEAN_ANOMALY   = 100.0295

EPHEMERIS_TYPE = 0
CLASSIFICATION_TYPE = U
NORAD_CAT_ID   = 66908
ELEMENT_SET_NO = 999
REV_AT_EPOCH   = 252
BSTAR          = .87908108E-3
MEAN_MOTION_DOT = .54298E-3
MEAN_MOTION_DDOT = 0

CCSDS_OMM_VERS = 2.0
CREATION_DATE  = 
ORIGINATOR     = 

OBJECT_NAME    = SILVERSAT
OBJECT_ID      = 1998-067XV
CENTER_NAME    = EARTH
REF_FRAME      = TEME
TIME_SYSTEM    = UTC
MEAN_ELEMENT_THEORY = SGP/SGP4

EPOCH          = 2025-12-18T14:02:44.424960
MEAN_MOTION    = 15.52406005
ECCENTRICITY   = .00038673
INCLINATION    = 51.6304
RA_OF_ASC_NODE = 113.3244
ARG_OF_PERICENTER = 263.4051
MEAN_ANOMALY   = 96.6498

EPHEMERIS_TYPE = 0
CLASSIFICATION_TYPE = U
NORAD_CAT_ID   = 66909
ELEMENT_SET_NO = 999
REV_AT_EPOCH   = 252
BSTAR          = .95009624E-3
MEAN_MOTION_DOT = .59069E-3
MEAN_MOTION_DDOT = 0

CCSDS_OMM_VERS = 2.0
CREATION_DATE  = 
ORIGINATOR     = 

OBJECT_NAME    = 1998-067XW
OBJECT_ID      = 1998-067XW
CENTER_NAME    = EARTH
REF_FRAME      = TEME
TIME_SYSTEM    = UTC
MEAN_ELEMENT_THEORY = SGP/SGP4

EPOCH          = 2025-12-18T14:00:11.133216
MEAN_MOTION    = 15.52431880
ECCENTRICITY   = .00043225
INCLINATION    = 51.6304
RA_OF_ASC_NODE = 113.3129
ARG_OF_PERICENTER = 240.7939
MEAN_ANOMALY   = 119.2619

EPHEMERIS_TYPE = 0
CLASSIFICATION_TYPE = U
NORAD_CAT_ID   = 66910
ELEMENT_SET_NO = 999
REV_AT_EPOCH   = 252
BSTAR          = .81329162E-3
MEAN_MOTION_DOT = .50492E-3
MEAN_MOTION_DDOT = 0

CCSDS_OMM_VERS = 2.0
CREATION_DATE  = 
ORIGINATOR     = 

OBJECT_NAME    = 1998-067XX
OBJECT_ID      = 1998-067XX
CENTER_NAME    = EARTH
REF_FRAME      = TEME
TIME_SYSTEM    = UTC
MEAN_ELEMENT_THEORY = SGP/SGP4

EPOCH          = 2025-12-18T15:30:03.053088
MEAN_MOTION    = 15.52835677
ECCENTRICITY   = .00040366
INCLINATION    = 51.6301
RA_OF_ASC_NODE = 112.9797
ARG_OF_PERICENTER = 247.1524
MEAN_ANOMALY   = 112.9040

EPHEMERIS_TYPE = 0
CLASSIFICATION_TYPE = U
NORAD_CAT_ID   = 66911
ELEMENT_SET_NO = 999
REV_AT_EPOCH   = 252
BSTAR          = .10034262E-2
MEAN_MOTION_DOT = .63428E-3
MEAN_MOTION_DDOT = 0

CCSDS_OMM_VERS = 2.0
CREATION_DATE  = 
ORIGINATOR     = 

OBJECT_NAME    = 1998-067XY
OBJECT_ID      = 1998-067XY
CENTER_NAME    = EARTH
REF_FRAME      = TEME
TIME_SYSTEM    = UTC
MEAN_ELEMENT_THEORY = SGP/SGP4

EPOCH          = 2025-12-18T14:08:25.948608
MEAN_MOTION    = 15.51695277
ECCENTRICITY   = .00040785
INCLINATION    = 51.6305
RA_OF_ASC_NODE = 113.3494
ARG_OF_PERICENTER = 255.7838
MEAN_ANOMALY   = 104.2699

EPHEMERIS_TYPE = 0
CLASSIFICATION_TYPE = U
NORAD_CAT_ID   = 66912
ELEMENT_SET_NO = 999
REV_AT_EPOCH   = 251
BSTAR          = .71420837E-3
MEAN_MOTION_DOT = .43076E-3
MEAN_MOTION_DDOT = 0

